0 FENGYUN 1C DEB
1 38144U 99025EQR 13281.22605807  .00000610  00000-0  75404-3 0   418
2 38144 099.0159 068.4010 0311550 046.9212 315.7702 13.49929349246542
0 FENGYUN 1C DEB
1 38144U 99025EQR 13284.19064874  .00000635  00000-0  78337-3 0   426
2 38144 099.0218 071.1051 0311384 039.5197 322.8343 13.49933616246945
0 FENGYUN 1C DEB
1 38144U 99025EQR 13286.19173679  .00000664  00000-0  81778-3 0   438
2 38144 099.0215 072.9193 0311386 034.3982 327.7017 13.49937037247219
0 FENGYUN 1C DEB
1 38144U 99025EQR 13289.23041266  .00000690  00000-0  84858-3 0   444
2 38144 099.0206 075.6737 0310963 026.6149 335.0801 13.49942077247620
0 FENGYUN 1C DEB
1 38144U 99025EQR 13292.63963724  .00000735  00000-0  89884-3 0   459
2 38144 099.0160 078.7576 0312333 017.5128 343.6858 13.49948758248083
